C/2019 M3 (ATLAS),e,99.6609,155.0608,87.9358,5091,0.0000027,0.99952372,0.0000,12/31.4865/2018,2000,g 12.2,4.0
# From MPEC 2023-JA2
C/2019 M4 (TESS),h,09/09.3512/2019,65.6936,52.6410,260.3370,1.000180,9.191022,2000,5.0,4.0
# From MPEC 2023-C45
C/2019 N1 (ATLAS),e,82.5427,13.5067,193.3415,956.8843,0.0000333,0.99822031,0.0000,11/30.4786/2020,2000,g  7.5,4.0
# From MPEC 2023-CD8
A/2019 N2,e,89.3188,276.2269,347.0568,1108,0.0000267,0.99824947,0.0000,08/22.4058/2019,2000,g 12.5,2.0
# From MPEC 2022-A21
C/2019 NJ3 (Lemmon),h,10/22.1574/2020,99.3295,142.4928,246.8690,1.001362,4.362915,2000,9.0,4.0
# From MPC185656
C/2019 O2 (PANSTARRS),e,93.2974,48.2635,129.5720,58.77823,0.0021872,0.83530081,1.9006,08/22.0/2025,2000,g  5.0,4.0
# From MPC182878
C/2019 O3 (Palomar),h,03/08.2474/2021,89.7943,300.4788,60.0960,1.002535,8.820644,2000,3.5,4.0
# From MPEC 2021-P47
A/2019 O4,e,114.9966,354.9256,61.8180,33.22124,0.0051473,0.89037520,10.3917,08/22.0/2025,2000,g 15.5,2.0
# From MPEC 2024-EF7
C/2019 Q1 (Lemmon),h,07/22.2827/2020,155.7196,42.4685,56.2538,1.002451,5.002251,2000,8.5,4.0
# From MPC117072
A/2019 Q2,e,158.9660,188.1346,176.5139,58.81912,0.0021849,0.97857273,0.0000,07/23.8011/2019,2000,g 18.0,2.0
# From MPC117072
P/2019 S2 (PANSTARRS),e,10.4636,93.1797,216.9151,4.747600,0.0952781,0.20466911,226.6853,08/22.0/2025,2000,g 13.5,4.0
# From MPEC 2022-CN4
P/2019 S3 (PANSTARRS),e,8.6942,150.1401,213.0993,3.414192,0.1562328,0.47071721,341.3810,08/22.0/2025,2000,g 18.3,4.0
# From MPEC 2021-S45
C/2019 S4 (Lemmon),e,92.0927,63.1551,71.3697,249.7074,0.0002498,0.98622887,0.0000,04/09.5000/2020,2000,g 11.0,4.0
# From MPEC 2023-N01
A/2019 T1,e,120.8157,6.9276,90.9741,38.74020,0.0040875,0.88966853,6.8674,08/22.0/2025,2000,g 13.0,2.0
# From MPEC 2023-R20
C/2019 T2 (Lemmon),e,111.3642,155.6539,239.3822,3268,0.0000053,0.99919125,0.0000,04/22.4780/2021,2000,g  9.0,4.0
# From MPEC 2023-UR6
C/2019 T3 (ATLAS),e,121.8781,139.5453,112.4912,4847,0.0000029,0.99877185,0.0000,03/04.7878/2021,2000,g  6.8,4.0
# From MPC182878
C/2019 T4 (ATLAS),e,53.6245,199.8971,351.1074,880.2020,0.0000377,0.99518611,0.0000,06/08.6706/2022,2000,g  5.0,4.0
# From MPEC 2021-P47
P/2019 T5 (ATLAS),e,33.4915,247.6131,189.6284,8.008322,0.0434902,0.80976298,96.1339,08/22.0/2025,2000,g 15.0,4.0
# From MPEC 2021-P47
P/2019 T6 (PANSTARRS),e,18.6982,71.2486,329.0617,5.443133,0.0776123,0.62238976,164.0063,08/22.0/2025,2000,g 15.5,4.0
# From MPC118096
P/2019 U4 (PANSTARRS),e,11.6954,199.9997,181.0877,3.518619,0.1493296,0.47572143,322.7370,08/22.0/2025,2000,g 19.0,4.0
# From MPC185656
C/2019 U5 (PANSTARRS),h,03/29.4044/2023,113.5128,2.6095,181.4469,1.000104,3.624306,2000,4.5,4.0
# From MPEC 2022-H04
C/2019 U6 (Lemmon),e,60.9904,235.7427,329.4243,302.5239,0.0001873,0.99700525,0.0000,06/18.3348/2020,2000,g 10.0,4.0
# From MPEC 2022-N37
C/2019 V1 (Borisov),e,61.9484,83.1481,51.1960,2766,0.0000068,0.99888197,0.0000,07/17.6709/2020,2000,g 11.0,4.0
# From MPEC 2022-L66
P/2019 V2 (Groeller),e,11.8071,189.1332,335.6338,7.494707,0.0480366,0.33193999,85.0078,08/22.0/2025,2000,g 10.0,4.0
# From MPEC 2023-A50
P/2019 W1 (PANSTARRS),e,23.4659,35.3592,18.9005,4.548445,0.1016037,0.26718070,233.0561,08/22.0/2025,2000,g 12.9,4.0
# From MPEC 2021-P47
P/2019 X1 (Pruyne),e,10.2451,43.6761,37.0035,6.179788,0.0641570,0.30380379,142.4386,08/22.0/2025,2000,g 10.4,4.0
# From MPEC 2020-C98
P/2019 X2 (Pan-STARRS),e,15.8946,250.8296,213.5237,3.633883,0.1422812,0.50049478,295.9323,08/22.0/2025,2000,g 18.0,4.0
# From MPC119999
C/2019 Y1 (ATLAS),e,73.2661,31.4684,57.9172,88.26370,0.0011886,0.99063851,0.0000,03/17.2701/2020,2000,g 13.7,4.0
# From MPEC 2024-A43
C/2019 Y4 (ATLAS),e,44.9196,120.7977,177.4059,328.1172,0.0001658,0.99921580,0.0000,05/29.5382/2020,2000,g 11.8,6.0
# From MPEC 2020-L06
C/2019 Y4-A (ATLAS),h,05/29.5946/2020,45.3538,121.1659,177.2378,1.001359,0.255463,2000,11.6,6.0
# From MPEC 2025-CE3
C/2019 Y4-B (ATLAS),e,45.0009,120.8611,177.3649,1318,0.0000206,0.99980498,0.0000,05/29.5475/2020,2000,g 12.1,6.0
# From MPEC 2020-L06
C/2019 Y4-C (ATLAS),h,05/29.5489/2020,45.1377,120.8932,177.2706,1.002087,0.256534,2000,12.7,6.0
# From MPEC 2020-L06
C/2019 Y4-D (ATLAS),e,45.1912,121.2541,177.4141,67.20649,0.0017889,0.99619290,0.0000,05/29.6287/2020,2000,g 12.5,6.0
# From MPEC 2023-A50
C/2019 Y5 (PANSTARRS),e,82.7765,51.7699,303.6712,684.7370,0.0000550,0.99279310,0.0000,08/16.4664/2019,2000,g 11.0,4.0
# From MPEC 2023-A50
A/2020 A1,e,149.0315,119.0561,302.4007,25.46003,0.0076721,0.93431586,16.0497,08/22.0/2025,2000,g 18.0,2.0
# From MPEC 2022-YN2
C/2020 A2 (Iwamoto),e,120.5002,286.1841,68.0138,948.1973,0.0000338,0.99897119,0.0000,01/06.9768/2020,2000,g 13.5,4.0
# From MPEC 2023-A50
C/2020 A3 (ATLAS),e,146.6187,120.7976,268.2294,4511,0.0000033,0.99872466,0.0000,06/26.6767/2019,2000,g  8.0,4.0
# From MPEC 2022-P91
P/2020 A4 (PANSTARRS-Lemmon),e,25.0039,312.2753,144.9159,8.203535,0.0419472,0.65447112,87.9819,08/22.0/2025,2000,g 15.0,4.0
# From MPEC 2020-N08
A/2020 B1,e,18.5422,309.7936,154.8927,52.13215,0.0026185,0.96663475,5.4052,08/22.0/2025,2000,g 21.0,2.0
# From MPEC 2020-HN5
C/2020 B2 (Lemmon),e,55.7558,354.1673,143.6342,67.92742,0.0017605,0.95942833,3.5802,08/22.0/2025,2000,g 10.0,4.0
# From MPEC 2022-N37
C/2020 B3 (Rankin),e,20.7068,185.7372,324.9383,1065,0.0000283,0.99687665,0.0000,10/20.8983/2019,2000,g 13.0,4.0
# From MPEC 2023-KD6
P/2020 B4 (Sheppard),e,11.6027,185.9455,342.0604,7.973827,0.0437727,0.19295858,60.0345,08/22.0/2025,2000,g 10.5,4.0
# From MPEC 2025-OF9
C/2020 F2 (ATLAS),h,07/12.3774/2022,163.5897,250.3001,48.2326,1.002382,8.813458,2000,4.5,4.0
# From MPEC 2021-O56
C/2020 F3 (NEOWISE),e,129.1059,61.0726,37.3412,404.2258,0.0001213,0.99927444,0.0000,07/05.0253/2020,2000,g  7.5,5.2
# From MPEC 2024-UQ8
C/2020 F5 (MASTER),e,52.2348,350.5467,310.6089,163.7581,0.0004703,0.97358308,0.0000,03/16.1028/2021,2000,g  6.5,3.2
# From MPEC 2020-L06
C/2020 F6 (PANSTARRS),e,174.5844,207.8340,344.3210,339.0331,0.0001579,0.98968250,0.0000,04/10.1963/2020,2000,g 14.5,2.8
# From MPEC 2024-A43
C/2020 F7 (Lemmon),e,93.9854,321.8195,227.9877,574.0296,0.0000717,0.99070568,0.0000,11/13.9117/2021,2000,g  7.0,4.0
# From MPEC 2023-J29
C/2020 F8 (SWAN),h,05/25.7128/2020,110.5572,259.8037,68.1174,1.000060,0.433024,2000,10.0,4.0
# From MPEC 2020-L06
P/2020 G1 (Pimentel),e,18.5065,240.0964,207.6523,3.606361,0.1439131,0.86082222,285.1246,08/22.0/2025,2000,g 17.0,4.0
# From MPEC 2022-YB4
C/2020 H2 (Pruyne),e,124.7747,277.6715,26.5811,176.3457,0.0004209,0.99530232,0.0000,04/26.7766/2020,2000,g 14.0,3.2
# From MPEC 2020-HM1
C/2020 H3 (Wierzchos),p,06/05.7162/2020,62.5292,30.4456,2.300288,270.6227,2000,13.5,4.0
# From MPEC 2020-L06
C/2020 H4 (Leonard),e,84.4948,307.4435,117.5844,47.85358,0.0029774,0.98060989,0.0000,08/29.1774/2020,2000,g 15.0,3.2
# From MPC184409
C/2020 H5 (Robinson),e,70.2259,210.6127,326.2635,6155,0.0000020,0.99848348,0.0000,12/09.9602/2020,2000,g  5.0,4.0
# From MPEC 2024-JU4
C/2020 H6 (ATLAS),e,79.9907,213.6884,20.1870,1922,0.0000117,0.99755631,0.0000,09/29.5155/2021,2000,g  8.0,3.2
# From MPEC 2020-KB7
C/2020 H7 (Lemmon),e,135.9235,323.5194,82.6780,1405,0.0000187,0.99685380,0.0000,06/02.9510/2020,2000,g 11.0,4.0
# From MPEC 2021-N06
C/2020 H8 (PANSTARRS),e,99.7020,68.4372,128.8100,589.0164,0.0000689,0.99208437,0.0000,06/04.8221/2020,2000,g 10.5,4.0
# From MPEC 2022-ED3
A/2020 H9,e,137.8733,213.1115,312.6048,339.5175,0.0001575,0.99245588,0.0000,12/21.7504/2019,2000,g 18.0,2.0
# From MPEC 2023-HN7
C/2020 H11 (PANSTARRS-Lemmon),e,151.3720,303.0576,91.3606,17374,0.0000004,0.99956137,0.0000,09/12.3563/2020,2000,g  8.5,4.0
# From MPEC 2023-KD6
C/2020 J1 (SONEAR),e,142.3076,226.5823,341.5681,7949,0.0000014,0.99957925,0.0000,04/17.9666/2021,2000,g  8.5,3.2
# From MPC184409
C/2020 K1 (PANSTARRS),e,89.6705,94.3672,213.9691,2251,0.0000092,0.99863413,0.0000,05/08.6939/2023,2000,g  5.5,4.0
# From MPEC 2021-N06
C/2020 K2 (PANSTARRS),h,08/04.2369/2020,90.9872,288.4352,67.3061,1.000781,8.880275,2000,10.8,4.0
# From MPEC 2020-KF9
C/2020 K3 (Leonard),p,06/01.0032/2020,129.0152,64.4924,1.583069,28.3546,2000,14.5,4.0
# From MPEC 2020-L06
C/2020 K4 (PANSTARRS),e,125.5849,264.2750,308.7748,23.91929,0.0084252,0.92711973,16.8164,08/22.0/2025,2000,g 16.5,4.0
# From MPEC 2021-R75
C/2020 K5 (PANSTARRS),h,06/04.1348/2021,67.0676,86.1411,249.6434,1.000771,1.541010,2000,11.0,4.0
# From MPEC 2023-N01
C/2020 K6 (Rankin),h,09/14.6171/2021,103.6291,291.6011,44.2723,1.001988,5.865868,2000,8.0,4.0
# From MPEC 2023-A50
C/2020 K7 (PANSTARRS),e,32.0442,286.1344,358.0673,94.44186,0.0010739,0.93236549,2.2851,08/22.0/2025,2000,g  8.0,4.0
# From MPEC 2021-P47
C/2020 K8 (Catalina-ATLAS),h,09/15.7561/2020,31.3746,181.2789,260.1841,1.000326,0.471635,2000,15.0,3.2
# From MPEC 2021-BE3
P/2020 K9 (Lemmon-PANSTARRS),e,23.1892,166.3099,197.0889,4.207556,0.1141982,0.32006776,188.7686,08/22.0/2025,2000,g 12.5,4.0
# From MPEC 2023-C45
P/2020 M1 (PANSTARRS),e,8.5347,142.6172,72.4817,5.311471,0.0805159,0.47360750,166.5701,08/22.0/2025,2000,g 14.5,4.0
# From MPEC 2022-H30
C/2020 M3 (ATLAS),e,23.4697,71.1790,328.6755,27.31187,0.0069052,0.95328957,12.1622,08/22.0/2025,2000,g 14.5,4.0
# From MPEC 2023-N01
A/2020 M4,e,160.1008,348.6128,104.4693,15468,0.0000005,0.99961596,0.0000,11/22.6488/2020,2000,g 14.5,2.0
# From MPEC 2024-NE4
P/2020 MK4 (PANSTARRS),e,6.7812,0.6617,93.7194,6.224753,0.0634630,0.01524908,321.4889,08/22.0/2025,2000,g  8.0,4.0
# From MPEC 2023-FK0
C/2020 M5 (ATLAS),h,08/19.7309/2021,93.1706,352.0126,126.2440,1.000103,2.999880,2000,9.0,4.0
# From MPEC 2022-GA9
C/2020 N1 (PANSTARRS),h,03/13.1994/2021,29.7680,279.8545,186.8418,1.000889,1.317735,2000,12.5,4.0
# From MPEC 2021-P47
C/2020 N2 (ATLAS),e,161.0388,257.1783,331.1910,101.1596,0.0009687,0.98237200,0.0000,08/24.3098/2020,2000,g 16.0,3.2
# From MPEC 2024-JU4
C/2020 O2 (Amaral),e,71.7625,256.7908,10.1643,9567,0.0000011,0.99949245,0.0000,08/27.1906/2021,2000,g  8.0,3.2
# From MPEC 2023-C45
